[
    {
        "Altitude(m)": 605459.0324110922,
        "Argument of Periapsis(deg)": 0.0,
        "Eccentricity": 0.0,
        "Inclination(deg)": 60.0,
        "Latitude(deg)": 27.988225733509125,
        "Longitude(deg)": 2.7985266700738767,
        "Mean Anomaly(deg)": 32.72730000000001,
        "RAAN(deg)": 85.00000000000001,
        "Satellite Name": "Test1 376",
        "Satellite Number": 376,
        "Semi-Major Axis(m)": 6980739.136638005,
        "Time(s)": 0
    },
    {
        "Altitude(m)": 605535.8236877369,
        "Argument of Periapsis(deg)": 0.00010418945913296404,
        "Eccentricity": 0.0,
        "Inclination(deg)": 60.0,
        "Latitude(deg)": 28.50135592887409,
        "Longitude(deg)": 3.1554705262889686,
        "Mean Anomaly(deg)": 33.347406145461825,
        "RAAN(deg)": 84.99957995086027,
        "Satellite Name": "Test1 376",
        "Satellite Number": 376,
        "Semi-Major Axis(m)": 6980739.136638005,
        "Time(s)": 10
    }
]